IRIDIUM 144             
1 43249U 18030A   23313.56475677  .00000521  00000+0  17915-3 0  9996
2 43249  86.3953 327.7235 0002362  93.8333 266.3133 14.34211028293889
IRIDIUM 149             
1 43250U 18030B   23314.47809219  .00000326  00000+0  10936-3 0  9991
2 43250  86.3949 327.3189 0002409  94.6329 265.5142 14.34212248294030
IRIDIUM 157             
1 43251U 18030C   23313.59012986  .00000424  00000+0  14432-3 0  9995
2 43251  86.3952 327.7226 0002071  87.5712 272.5721 14.34219100293880
IRIDIUM 140             
1 43252U 18030D   23314.09753595  .00000445  00000+0  15190-3 0  9995
2 43252  86.3948 327.5245 0002340  98.7554 261.3907 14.34214682294010
IRIDIUM 145             
1 43253U 18030E   23314.08484767  .00000464  00000+0  15861-3 0  9993
2 43253  86.3950 327.5046 0002527  96.9211 263.2272 14.34211368293945
IRIDIUM 146             
1 43254U 18030F   23314.13559061  .00000397  00000+0  13485-3 0  9995
2 43254  86.3950 327.4989 0002519  92.5493 267.5991 14.34221139293960
IRIDIUM 148             
1 43255U 18030G   23314.45272450  .00000169  00000+0  53132-4 0  9996
2 43255  86.3949 327.3953 0002543  89.4198 270.7289 14.34212256294050
IRIDIUM 142             
1 43256U 18030H   23313.79308856  .00000531  00000+0  18264-3 0  9992
2 43256  86.3948 327.5943 0002497  89.4282 270.7200 14.34210945293913
